AMC-18                  
1 29644U 06054B   16213.53310546 -.00000115  00000-0  00000+0 0  9997
2 29644   0.0510 270.5498 0002648 212.7681 273.1931  1.00272632 35383
MEASAT-3                
1 29648U 06056A   16212.88844407 -.00000267  00000-0  00000-0 0  9997
2 29648   0.0311 158.0097 0003344 338.2114 224.0437  1.00273202 14275
KIKU-8 (ETS-VIII)       
1 29656U 06059A   16212.90706247 -.00000268  00000-0  00000+0 0  9991
2 29656   4.9776  61.0695 0004709  51.4308 308.6717  1.00271665 35267
INSAT-4B                
1 30793U 07007A   16212.88849744 -.00000283  00000-0  00000-0 0  9994
2 30793   0.4828  89.6316 0003415 139.8193 132.8257  1.00270192  6024
SKYNET 5A               
1 30794U 07007B   16212.88853556 -.00000296  00000-0  00000-0 0  9995
2 30794   0.0661   3.1140 0003538 133.2200 227.6567  1.00273785 34518
ANIK F3                 
1 31102U 07009A   16213.40014895 -.00000027  00000-0  00000+0 0  9996
2 31102   0.0122  77.0275 0001672  54.1926 203.5376  1.00271845 34152
ASTRA 1L                
1 31306U 07016A   16213.18103381  .00000094  00000-0  00000+0 0  9997
2 31306   0.0993 293.0171 0001743 321.0073 139.5376  1.00265754 33864
GALAXY 17 (G-17)        
1 31307U 07016B   16213.11625105 -.00000200  00000-0  00000+0 0  9994
2 31307   0.0224  13.9189 0002881 122.0271 124.0517  1.00272053 33892
ZHONGXING-6B            
1 31800U 07031A   16212.97623374 -.00000386  00000-0  00000+0 0  9993
2 31800   0.0248  85.4623 0002570  52.7747 277.7578  1.00269995 33293
DIRECTV 10              
1 31862U 07032A   16212.42882262 -.00000126  00000-0  00000+0 0  9997
2 31862   0.0152 283.1769 0000200 297.2064 139.6153  1.00270318 33228
SPACEWAY 3              
1 32018U 07036A   16213.34588469 -.00000177  00000-0  00000+0 0  9995
2 32018   0.0031 295.5009 0000139 330.0655  73.3678  1.00270397 32946
BSAT-3A                 
1 32019U 07036B   16212.83681109 -.00000375  00000-0  00000+0 0  9994
2 32019   0.0534 238.3854 0003406 314.0929 167.4959  1.00269863 32880
INSAT-4CR               
1 32050U 07037A   16212.92147420 -.00000102  00000-0  00000-0 0  9992
2 32050   0.0819 268.3059 0004998 344.5064 101.8802  1.00272060 15216
OPTUS D2                
1 32252U 07044A   16210.62035122 -.00000203  00000-0  00000-0 0  9996
2 32252   0.0636 287.2001 0003043 206.7063 188.1031  1.00270308 32373
INTELSAT 11 (IS-11)     
1 32253U 07044B   16213.14293148 -.00000294  00000-0  00000+0 0  9990
2 32253   0.0552 255.7832 0002361 249.4051 172.4384  1.00271571 32343
STAR ONE C1             
1 32293U 07056A   16212.32395530 -.00000300  00000-0  00000+0 0  9992
2 32293   0.0153 314.5903 0002267 187.4098 217.9997  1.00272829 31929
SKYNET 5B               
1 32294U 07056B   16212.93500804  .00000117  00000-0  00000-0 0  9998
2 32294   0.0679   0.9404 0003628 130.8451 178.9040  1.00269308 32049
ASTRA 4A (SIRIUS 4)     
1 32299U 07057A   16213.10209678  .00000007  00000-0  00000+0 0  9996
2 32299   0.0549 274.9789 0002233 229.0591 206.6674  1.00273106 31778
HORIZONS-2              
1 32388U 07063B   16212.86362086 -.00000207  00000-0  00000-0 0  9991
2 32388   0.0128  44.6350 0002679  87.2555 212.7538  1.00271960 31676
THURAYA-3               
1 32404U 08001A   16212.97833687 -.00000320  00000-0  00000+0 0  9990
2 32404   4.1985 350.5323 0004348 138.6444 270.5496  1.00271313 31355
EXPRESS-AM33            
1 32478U 08003A   16212.02880664 -.00000304  00000-0  00000-0 0  9999
2 32478   0.0447 243.7415 0000650  35.5363 135.6760  1.00270959 31435
THOR 5                  
1 32487U 08006A   16213.24948941 -.00000034  00000-0  00000+0 0  9999
2 32487   0.0598 257.7604 0002057 238.8998 261.6863  1.00272808 31004
KIZUNA (WINDS)          
1 32500U 08007A   16210.43614943 -.00000278  00000-0  00000-0 0  9997
2 32500   0.1539  93.3139 0002624  17.8737 135.3388  1.00271178 30691
AMC-14                  
1 32708U 08011A   16213.24391475  .00000067  00000-0  00000+0 0  9990
2 32708  18.5201  67.8014 0039509   8.4377 338.8356  1.00273647 31910
DIRECTV 11              
1 32729U 08013A   16212.21160536 -.00000149  00000-0  00000+0 0  9995
2 32729   0.0047 308.3636 0000498 279.9238  56.9638  1.00272279 30747
ICO G1                  
1 32763U 08016A   16213.51565968 -.00000190  00000-0  00000+0 0  9994
2 32763   3.9698 351.2397 0003021 145.9165 265.1832  1.00271259 30293
VINASAT-1               
1 32767U 08018A   16212.77566142 -.00000353  00000-0  00000+0 0  9993
2 32767   0.0401 280.9393 0001462 233.6673 205.3834  1.00272040 30429
STAR ONE C2             
1 32768U 08018B   16211.34056641 -.00000286  00000-0  00000+0 0  9999
2 32768   0.0432 224.8272 0002392 292.0588 203.1109  1.00269167 30353
TIANLIAN 1-01           
1 32779U 08019A   16212.83144465 -.00000165  00000-0  10000-3 0  9990
2 32779   2.1513  77.6233 0031313 220.5265  30.2424  1.00272905 30287
AMOS-3                  
1 32794U 08022A   16213.12100845 -.00000060  00000-0  00000+0 0  9997
2 32794   0.0154 138.1514 0000992 316.8584 253.6937  1.00271999 30269
GALAXY 18 (G-18)        
1 32951U 08024A   16212.48466908  .00000001  00000-0  00000+0 0  9991
2 32951   0.0113  67.6438 0003145  71.3524 221.0110  1.00272052 29902
CHINASAT 9 (ZX 9)       
1 33051U 08028A   16211.68300454 -.00000269  00000-0  00000-0 0  9999
2 33051   0.0040 358.7738 0004098 121.9954 165.0567  1.00269675 29817
SKYNET 5C               
1 33055U 08030A   16212.87530368 -.00000164  00000-0  00000-0 0  9991
2 33055   0.0622  17.0336 0003770 130.7307  98.4339  1.00271663 29795
TURKSAT 3A              
1 33056U 08030B   16212.90694301  .00000121  00000-0  00000+0 0  9995
2 33056   0.0481 146.8117 0005120 353.6770 176.9315  1.00272563 29895
INTELSAT 25 (IS-25)     
1 33153U 08034A   16213.22846287 -.00000249  00000-0  00000+0 0  9997
2 33153   0.0122  53.2602 0002288  73.4207 233.3402  1.00269939 29459
BADR-6                  
1 33154U 08034B   16212.73560800  .00000120  00000-0  00000+0 0  9994
2 33154   0.0641  46.7056 0004502  51.9079 140.9660  1.00272335 29571
ECHOSTAR 11             
1 33207U 08035A   16211.45137013 -.00000078  00000-0  00000+0 0  9991
2 33207   0.0541 260.7737 0002747 242.4558 216.7752  1.00271263 29462
SUPERBIRD-C2            
1 33274U 08038A   16212.84373704 -.00000276  00000-0  00000-0 0  9992
2 33274   0.0178 332.8653 0000693 195.4682 228.2409  1.00270512 69549
AMC-21                  
1 33275U 08038B   16212.39401053  .00000013  00000-0  00000+0 0  9999
2 33275   0.0497 281.4978 0002408 212.6125 191.2668  1.00270556 29273
INMARSAT 4-F3           
1 33278U 08039A   16212.35285087 -.00000158  00000-0  00000+0 0  9997
2 33278   3.0180 358.2104 0002827 128.2663 210.9821  1.00273024 29077
NIMIQ 4                 
1 33373U 08044A   16213.26458744 -.00000246  00000-0  00000+0 0  9990
2 33373   0.0179  71.2555 0002232  52.9117 198.3741  1.00270905 28655
GALAXY 19 (G-19)        
1 33376U 08045A   16212.41263874 -.00000163  00000-0  00000+0 0  9996
2 33376   0.0143  94.6092 0002749  45.9452 219.4493  1.00272023 28653
VENESAT-1               
1 33414U 08055A   16211.59144297 -.00000259  00000-0  00000-0 0  9992
2 33414   0.0448 240.5406 0002202 239.2579 322.7762  1.00273762 28486
ASTRA 1M                
1 33436U 08057A   16213.18103381  .00000094  00000-0  00000+0 0  9999
2 33436   0.0184  63.1107 0004987  74.7069 255.7556  1.00272546 28308
CIEL-2                  
1 33453U 08063A   16213.40726641  .00000032  00000-0  00000+0 0  9992
2 33453   0.0378 294.1908 0002648 200.4560 192.5467  1.00271366 27995
EUTELSAT HOT BIRD 13C   
1 33459U 08065A   16212.10806132  .00000064  00000-0  00000+0 0  9995
2 33459   0.0663  68.1590 0005353  51.4249 240.4540  1.00272611 28066
EUTELSAT 48D            
1 33460U 08065B   16212.95027133  .00000099  00000-0  00000-0 0  9995
2 33460   0.0601 323.9590 0001955 194.0914 181.1121  1.00273813 27856
FENGYUN 2E              
1 33463U 08066A   16212.97527641 -.00000224  00000-0  00000+0 0  9990
2 33463   1.5830  63.3742 0003686 196.6630 126.4433  1.00275159 27908
EXPRESS-AM44            
1 33595U 09007A   16213.31556428 -.00000114  00000-0  00000+0 0  9994
2 33595   0.0348 236.7186 0000781 314.3977 220.8447  1.00272128 27385
NSS-9                   
1 33749U 09008A   16212.77509740  .00000047  00000-0  00000+0 0  9994
2 33749   0.0223 346.4178 0001859 149.7725 274.7354  1.00271949 27381
EUTELSAT HOT BIRD 13D   
1 33750U 09008B   16213.07132909  .00000130  00000-0  00000+0 0  9992
2 33750   0.0510 300.4145 0004978 229.1616 198.2742  1.00270358 27422
TELSTAR 11N             
1 34111U 09009A   16213.03265050 -.00000276  00000-0  00000+0 0  9997
2 34111   0.0264  79.6861 0002401  43.1658 160.4319  1.00269119 27232
EUTELSAT 10A            
1 34710U 09016A   16212.80860678  .00000043  00000-0  00000+0 0  9992
2 34710   0.0637   6.2582 0005131 121.8504 121.8330  1.00270728 26785
SES-7 (PROTOSTAR 2)     
1 34941U 09027A   16212.88799405 -.00000370  00000-0  00000-0 0  9992
2 34941   0.0154  50.7635 0001321 203.1833 122.8927  1.00269407 26453
MEASAT-3A               
1 35362U 09032A   16212.88764589 -.00000266  00000-0  00000-0 0  9995
2 35362   0.0560 244.0868 0002192 303.2783 172.6142  1.00271086 26055
GOES 14                 
1 35491U 09033A   16212.43388909 -.00000115  00000-0  00000+0 0  9990
2 35491   0.3251  96.9379 0004944 103.7118 159.3139  1.00272391 25979
SIRIUS FM-5             
1 35493U 09034A   16212.56781279 -.00000224  00000-0  00000+0 0  9995
2 35493   0.0140  50.2072 0000218 311.3466  65.3338  1.00271509 25798
TERRESTAR-1             
1 35496U 09035A   16213.39032347 -.00000076  00000-0  00000+0 0  9991
2 35496   3.1588 338.5627 0002770 158.1347 202.2407  1.00272199 25985
ASIASAT 5               
1 35696U 09042A   16212.99195672 -.00000333  00000-0  00000-0 0  9994
2 35696   0.0545 260.6275 0002134 199.1486 306.8386  1.00274018 25498
